{"fetched_at":"2026-07-12T07:15:41.752Z","source":"https://celestrak.org/NORAD/elements/gp.php?NAME=HAWK&FORMAT=JSON","constellation":"hawkeye-360","records":[{"OBJECT_NAME":"HAWK-A","OBJECT_ID":"2018-099H","EPOCH":"2026-07-11T22:58:48.914976","CLASSIFICATION_TYPE":"U","MEAN_MOTION":15.24938254,"ECCENTRICITY":0.0034381,"INCLINATION":97.3904,"RA_OF_ASC_NODE":244.8727,"ARG_OF_PERICENTER":195.3513,"MEAN_ANOMALY":164.6685,"EPHEMERIS_TYPE":0,"NORAD_CAT_ID":43765,"ELEMENT_SET_NO":999,"REV_AT_EPOCH":41687,"BSTAR":0.00017430664,"MEAN_MOTION_DOT":0.00004339,"MEAN_MOTION_DDOT":0},{"OBJECT_NAME":"HAWK-B","OBJECT_ID":"2018-099AN","EPOCH":"2026-07-11T16:19:35.118048","CLASSIFICATION_TYPE":"U","MEAN_MOTION":15.23089676,"ECCENTRICITY":0.00310439,"INCLINATION":97.3953,"RA_OF_ASC_NODE":243.9622,"ARG_OF_PERICENTER":214.6095,"MEAN_ANOMALY":145.3122,"EPHEMERIS_TYPE":0,"NORAD_CAT_ID":43794,"ELEMENT_SET_NO":999,"REV_AT_EPOCH":41676,"BSTAR":0.00015606856,"MEAN_MOTION_DOT":0.00003655,"MEAN_MOTION_DDOT":0},{"OBJECT_NAME":"HAWK-C","OBJECT_ID":"2018-099AT","EPOCH":"2026-07-11T17:55:09.494688","CLASSIFICATION_TYPE":"U","MEAN_MOTION":15.28455421,"ECCENTRICITY":0.00399571,"INCLINATION":97.3882,"RA_OF_ASC_NODE":245.6984,"ARG_OF_PERICENTER":196.041,"MEAN_ANOMALY":163.9568,"EPHEMERIS_TYPE":0,"NORAD_CAT_ID":43799,"ELEMENT_SET_NO":999,"REV_AT_EPOCH":41766,"BSTAR":0.00017842134,"MEAN_MOTION_DOT":0.00004981,"MEAN_MOTION_DDOT":0},{"OBJECT_NAME":"HAWK-2C","OBJECT_ID":"2021-006CT","EPOCH":"2026-07-11T15:59:32.419680","CLASSIFICATION_TYPE":"U","MEAN_MOTION":15.34960543,"ECCENTRICITY":0.00085962,"INCLINATION":97.2271,"RA_OF_ASC_NODE":236.49,"ARG_OF_PERICENTER":110.8364,"MEAN_ANOMALY":249.3801,"EPHEMERIS_TYPE":0,"NORAD_CAT_ID":47502,"ELEMENT_SET_NO":999,"REV_AT_EPOCH":30325,"BSTAR":0.00012190718,"MEAN_MOTION_DOT":0.00004059,"MEAN_MOTION_DDOT":0},{"OBJECT_NAME":"HAWK-2A","OBJECT_ID":"2021-006CW","EPOCH":"2026-07-11T16:02:47.560128","CLASSIFICATION_TYPE":"U","MEAN_MOTION":15.34975584,"ECCENTRICITY":0.00081033,"INCLINATION":97.2313,"RA_OF_ASC_NODE":237.1844,"ARG_OF_PERICENTER":114.046,"MEAN_ANOMALY":246.1633,"EPHEMERIS_TYPE":0,"NORAD_CAT_ID":47505,"ELEMENT_SET_NO":999,"REV_AT_EPOCH":30325,"BSTAR":0.0001232211,"MEAN_MOTION_DOT":0.00004105,"MEAN_MOTION_DDOT":0},{"OBJECT_NAME":"HAWK-2B","OBJECT_ID":"2021-006CZ","EPOCH":"2026-07-11T17:27:45.553248","CLASSIFICATION_TYPE":"U","MEAN_MOTION":15.35104016,"ECCENTRICITY":0.00086672,"INCLINATION":97.2184,"RA_OF_ASC_NODE":235.5351,"ARG_OF_PERICENTER":112.2337,"MEAN_ANOMALY":247.9827,"EPHEMERIS_TYPE":0,"NORAD_CAT_ID":47508,"ELEMENT_SET_NO":999,"REV_AT_EPOCH":30326,"BSTAR":0.00013734459,"MEAN_MOTION_DOT":0.00004605,"MEAN_MOTION_DDOT":0},{"OBJECT_NAME":"HAWK-3B","OBJECT_ID":"2021-059BE","EPOCH":"2026-07-11T12:50:18.778848","CLASSIFICATION_TYPE":"U","MEAN_MOTION":15.71629594,"ECCENTRICITY":0.00041689,"INCLINATION":97.6639,"RA_OF_ASC_NODE":31.5827,"ARG_OF_PERICENTER":212.057,"MEAN_ANOMALY":148.0439,"EPHEMERIS_TYPE":0,"NORAD_CAT_ID":48931,"ELEMENT_SET_NO":999,"REV_AT_EPOCH":28167,"BSTAR":0.00025308796,"MEAN_MOTION_DOT":0.00032448,"MEAN_MOTION_DDOT":0},{"OBJECT_NAME":"HAWK-3C","OBJECT_ID":"2021-059BX","EPOCH":"2026-07-11T12:49:51.971520","CLASSIFICATION_TYPE":"U","MEAN_MOTION":15.71633627,"ECCENTRICITY":0.00042487,"INCLINATION":97.6752,"RA_OF_ASC_NODE":37.3098,"ARG_OF_PERICENTER":211.5765,"MEAN_ANOMALY":148.5243,"EPHEMERIS_TYPE":0,"NORAD_CAT_ID":48948,"ELEMENT_SET_NO":999,"REV_AT_EPOCH":28167,"BSTAR":0.00024970301,"MEAN_MOTION_DOT":0.00032017,"MEAN_MOTION_DDOT":0},{"OBJECT_NAME":"HAWK-3A","OBJECT_ID":"2021-059CG","EPOCH":"2026-07-11T12:49:42.274848","CLASSIFICATION_TYPE":"U","MEAN_MOTION":15.71633774,"ECCENTRICITY":0.00043521,"INCLINATION":97.67,"RA_OF_ASC_NODE":34.495,"ARG_OF_PERICENTER":212.7236,"MEAN_ANOMALY":147.3758,"EPHEMERIS_TYPE":0,"NORAD_CAT_ID":48957,"ELEMENT_SET_NO":999,"REV_AT_EPOCH":28167,"BSTAR":0.00025470839,"MEAN_MOTION_DOT":0.00032665,"MEAN_MOTION_DDOT":0},{"OBJECT_NAME":"HAWK-5C","OBJECT_ID":"2022-057Y","EPOCH":"2026-07-10T09:17:30.820128","CLASSIFICATION_TYPE":"U","MEAN_MOTION":15.52213641,"ECCENTRICITY":0.0003251,"INCLINATION":97.6609,"RA_OF_ASC_NODE":352.5681,"ARG_OF_PERICENTER":5.7698,"MEAN_ANOMALY":354.3591,"EPHEMERIS_TYPE":0,"NORAD_CAT_ID":52754,"ELEMENT_SET_NO":999,"REV_AT_EPOCH":22994,"BSTAR":0.00021564902,"MEAN_MOTION_DOT":0.00012974,"MEAN_MOTION_DDOT":0},{"OBJECT_NAME":"HAWK-5B","OBJECT_ID":"2022-057AA","EPOCH":"2026-07-11T20:52:20.301888","CLASSIFICATION_TYPE":"U","MEAN_MOTION":15.52245058,"ECCENTRICITY":0.00037929,"INCLINATION":97.662,"RA_OF_ASC_NODE":352.5006,"ARG_OF_PERICENTER":346.6036,"MEAN_ANOMALY":13.5114,"EPHEMERIS_TYPE":0,"NORAD_CAT_ID":52756,"ELEMENT_SET_NO":999,"REV_AT_EPOCH":23017,"BSTAR":0.00018860209,"MEAN_MOTION_DOT":0.00011345,"MEAN_MOTION_DDOT":0},{"OBJECT_NAME":"HAWK-5A","OBJECT_ID":"2022-057AB","EPOCH":"2026-07-11T22:24:53.224704","CLASSIFICATION_TYPE":"U","MEAN_MOTION":15.52247282,"ECCENTRICITY":0.00036479,"INCLINATION":97.6614,"RA_OF_ASC_NODE":353.3999,"ARG_OF_PERICENTER":351.726,"MEAN_ANOMALY":8.3931,"EPHEMERIS_TYPE":0,"NORAD_CAT_ID":52757,"ELEMENT_SET_NO":999,"REV_AT_EPOCH":23018,"BSTAR":0.00019426394,"MEAN_MOTION_DOT":0.0001169,"MEAN_MOTION_DDOT":0},{"OBJECT_NAME":"HAWK-6B","OBJECT_ID":"2023-011A","EPOCH":"2026-07-11T12:14:37.633056","CLASSIFICATION_TYPE":"U","MEAN_MOTION":15.23133888,"ECCENTRICITY":0.00036007,"INCLINATION":40.4968,"RA_OF_ASC_NODE":210.1816,"ARG_OF_PERICENTER":221.4345,"MEAN_ANOMALY":138.6192,"EPHEMERIS_TYPE":0,"NORAD_CAT_ID":55324,"ELEMENT_SET_NO":999,"REV_AT_EPOCH":19155,"BSTAR":0.00012151932,"MEAN_MOTION_DOT":0.00002734,"MEAN_MOTION_DDOT":0},{"OBJECT_NAME":"HAWK-6C","OBJECT_ID":"2023-011C","EPOCH":"2026-07-11T12:13:43.580352","CLASSIFICATION_TYPE":"U","MEAN_MOTION":15.23135553,"ECCENTRICITY":0.00041125,"INCLINATION":40.4958,"RA_OF_ASC_NODE":207.0206,"ARG_OF_PERICENTER":211.78,"MEAN_ANOMALY":148.2762,"EPHEMERIS_TYPE":0,"NORAD_CAT_ID":55326,"ELEMENT_SET_NO":999,"REV_AT_EPOCH":19156,"BSTAR":0.00012549433,"MEAN_MOTION_DOT":0.0000283,"MEAN_MOTION_DDOT":0},{"OBJECT_NAME":"HAWK-6A","OBJECT_ID":"2023-011D","EPOCH":"2026-07-11T12:13:46.619040","CLASSIFICATION_TYPE":"U","MEAN_MOTION":15.23134269,"ECCENTRICITY":0.00036281,"INCLINATION":40.4966,"RA_OF_ASC_NODE":208.6476,"ARG_OF_PERICENTER":209.463,"MEAN_ANOMALY":150.5976,"EPHEMERIS_TYPE":0,"NORAD_CAT_ID":55327,"ELEMENT_SET_NO":999,"REV_AT_EPOCH":19156,"BSTAR":0.00011852197,"MEAN_MOTION_DOT":0.00002662,"MEAN_MOTION_DDOT":0},{"OBJECT_NAME":"HAWK-7A","OBJECT_ID":"2023-054P","EPOCH":"2026-07-11T17:48:17.881632","CLASSIFICATION_TYPE":"U","MEAN_MOTION":15.27609969,"ECCENTRICITY":0.00017799,"INCLINATION":97.2673,"RA_OF_ASC_NODE":79.4553,"ARG_OF_PERICENTER":350.0874,"MEAN_ANOMALY":10.033,"EPHEMERIS_TYPE":0,"NORAD_CAT_ID":56191,"ELEMENT_SET_NO":999,"REV_AT_EPOCH":18077,"BSTAR":0.00012526719,"MEAN_MOTION_DOT":0.00003309,"MEAN_MOTION_DDOT":0}]}
